name,trade,phone,email,city,state,contact,notes,website
Vendor,,,,,,,,
Anthony J. Contenta,,,,,,,,
Bruno Hayn,,,,,,,,
Coleton Lamb,,,,,,,,
Ralph Habchi,,,,,,,,
Alan Peed Trim guy,,,,,,,,
Babbitt Home Improvement,,,,,,,,
Steve Myer,,,,,,,,
Fine and Handy LLC,,,,,,,,
Rooster Construction,,,,,,,,
Doug O'Connor The Wood Shop,,,,,,,,
Fine and Handy LLC,,,,,,,,
"JFM, LLC Contracting",,,,,,,,
Concrete Connection,,,,,,,,
Concrete Express,,,,,,,,
Concrete Quick,,,,,,,,
Classey Concrete,,,,,,,,
Jenco Construction,,,,,,,,
KobyLuck,,,,,,,,
McKinney Mobile Mix,,,,,,,,
RI Concrete  services,,,,,,,,
Mobile Mix Concrete,,,,,,,,
Thomas Construction LLC,,,,,,,,
Master Halco,,,,,,,,
Master Halco,,,,,,,,
Master Halco,,,,,,,,
Diego Bermira,,,,,,,,
Roberts Cleaning Service,,,,,,,,
Cardinal Container Inc,,,,,,,,
"CWPM, LLC",,,,,,,,
"CWPM, LLC",,,,,,,,
Hayes Services,,,,,,,,
Dylan's Dumpster LLC,,,,,,,,
Serluca Dumpster,,,,,,,,
USA Hauling & Recycling Inc,,,,,,,,
Accurate Electric,,,,,,,,
Bassetti Electric LLC,,,,,,,,
Casey Electrical Services,,,,,,,,
CLS - CT Lighting Showroom,,,,,,,,
CT Lighting Centers,,,,,,,,
D.B. Lunt Electrical Contractor,,,,,,,,
Electric Wholesalers,,,,,,,,
Lagace Electric,,,,,,,,
MGT Electrical Services Mike Terlizzi,,,,,,,,
Ritacco Electric,,,,,,,,
TR & Sons Electric LLC dba Chabot Electric,,,,,,,,
Eastern Fence,,,,,,,,
HRC Services LLC -  Bob Courtemanche,,,,,,,,
Calafiore Tile,,,,,,,,
T&S Flooring,,,,,,,,
Universal Ceramic Tile,,,,,,,,
Pro Source Supply,,,,,,,,
Curved Glass Distributors,,,,,,,,
Ruby Glass Co.,,,,,,,,
United Glass & Mirror Co.,,,,,,,,
Avant Building & Remodeling Roofing/Siding/Gutters,,,,,,,,
C&R Insulation,,,,,,,,
Landi Home Improvement,,,,,,,,
"Quality Insulation, Inc",,,,,,,,
Joe Cerrito,,,,,,,,
SunnStone Construction (Goliath Tech),,,,,,,,
Goliath Tech,,,,,,,,
Techno Metal Post,,,,,,,,
Joe Agnello (Agnello Investigations),,,,,,,,
Quality Insulation,,,,,,,,
Anchor Insulation,,,,,,,,
TeirTech Services,,,,,,,,
Cedar Ridge Landscaping,,,,,,,,
Cedar Ridge Landscaping,,,,,,,,
VP Lawn & landscaping,,,,,,,,
Dwyer Landscaping,,,,,,,,
"Be The Light Designs, LLC",,,,,,,,
A Scalla Lock & Key,,,,,,,,
Arnold Lumber,,,,,,,,
Beard Lumber,,,,,,,,
"Chace Suilding Supply of CT, Inc",,,,,,,,
"Chace Suilding Supply of CT, Inc",,,,,,,,
Kelly Fradet Lumber,,,,,,,,
Master Halco,,,,,,,,
Norwich Lumber,,,,,,,,
Ring's End,,,,,,,,
Riverhead Building Supply,,,,,,,,
Riverhead Building Supply,,,,,,,,
"Sanford & Hawley, Inc",,,,,,,,
Shagbark Lumber & Farm Supplies,,,,,,,,
Sigfridson Wood Products,,,,,,,,
Willards Lumber,,,,,,,,
General Woodcraft,,,,,,,,
Father & Son/Drini Pasholli,,,,,,,,
Larry Fusaro,,,,,,,,
Varsen Landscapes LLC,,,,,,,,
"Champman Landscaping, LLC",,,,,,,,
Stone Craft Masonry,,,,,,,,
True North Stoneworks,,,,,,,,
Thomas Construction LLC,,,,,,,,
Nutmeg Tool & Products,,,,,,,,
Ulasik Sheet Metal Inc,,,,,,,,
Certa Pro Painters,,,,,,,,
Emilien Painting & Restoration,,,,,,,,
Ring's End Paint Store,,,,,,,,
Sherwin-Williams,,,,,,,,
TJ Painting,,,,,,,,
Login Info for PermitLink Online and Viewpoint Cloud,,,,,,,,
Town of Montville,,,,,,,,
Voice New England,,,,,,,,
Delia Plumbing,,,,,,,,
Ed Tomaszek,,,,,,,,
Friedrich Air Conditioning Co,,,,,,,,
Glasco Heating & Air Cond. Inc,,,,,,,,
Granite Group,,,,,,,,
Granite Group,,,,,,,,
"J & J Plumbing & Heating, LLC",,,,,,,,
"Riley's Heating Service, Inc",,,,,,,,
A&D Portable Rentals,,,,,,,,
Global Site Services,,,,,,,,
Regional Restrooms,,,,,,,,
Richard White & Sons,,,,,,,,
Action Equipment Rental,,,,,,,,
Arrow Equipment Rental,,,,,,,,
Superior East,,,,,,,,
Taylor Rental (Johnsons Hardware),,,,,,,,
Pawcatucket Roofing,,,,,,,,
Perez Brothers Roofing,,,,,,,,
Sclalabba Roofing & Remodeling,,,,,,,,
Gulf Eagle,,,,,,,,
CR Laurence,,,,,,,,
Stoett,,,,,,,,
Branciforte Drywall,,,,,,,,
Cyr Drywall,,,,,,,,
Halle Drywall,,,,,,,,
Coastal Drywall,,,,,,,,
Landi Home Improvement,,,,,,,,
ABC Supply Company Inc,,,,,,,,
Avant Siding & Remodeling (Siding & Roofers),,,,,,,,
Ace True Value,,,,,,,,
Gulf Eagle,,,,,,,,
Lansing - Harvey Industries,,,,,,,,
Whitney Supply Company,,,,,,,,
Four Seasons Sunrooms,,,,,,,,
Lux Homes/Four Seasons Sunroom installer,,,,,,,,
Sunshine Rooms - Crystal Structures,,,,,,,,
SummerSpace,,,,,,,,
TEMO,,,,,,,,
Thermal Designs,,,,,,,,
Curry Land Surveying LLC,,,,,,,,
Estes Express Lines,,,,,,,,
JP Express,,,,,,,,
Ron McCoy Trucking,,,,,,,,
Anderson Windows Inc,,,,,,,,
Wincore Windows,,,,,,,,
Cable Bullet,,,,,,,,
Call Before You Dig,,,,,,,,
CenterLine,,,,,,,,
